{"type": "FeatureCollection", "features": [ {"type": "Feature", "properties": {"norad_id": 66563, "name": "STARLINK-35437", "group": "last-30-days", "lat": -23.642279143553306, "lon": -0.7551974243976143, "alt_km": 395.80186369122475, "timestamp": "2025-12-07T14:37:03.994416+00:00", "meta": {"OBJECT_NAME": "STARLINK-35437", "OBJECT_ID": "2025-268G", "EPOCH": "2025-12-06T22:00:01.999584", "MEAN_MOTION": 15.60629172, "ECCENTRICITY": 0.00015725, "INCLINATION": 42.9998, "RA_OF_ASC_NODE": 155.3272, "ARG_OF_PERICENTER": 268.9831, "MEAN_ANOMALY": 15.9623, "EPHEMERIS_TYPE": 0, "CLASSIFICATION_TYPE": "U", "NORAD_CAT_ID": 66563, "ELEMENT_SET_NO": 999, "REV_AT_EPOCH": 373, "BSTAR": -0.025853252, "MEAN_MOTION_DOT": -0.01940078, "MEAN_MOTION_DDOT": 0}, "tle": {"line1": "1 66563U 25268G   25340.91668981 -.01940078  00000+0 -25853-1 0  9995", "line2": "2 66563  42.9998 155.3272 0001572 268.9831  15.9623 15.60629172  3734"}}, "geometry": {"type": "Point", "coordinates": [-0.7551974243976143, -23.642279143553306]}}, {"type": "Feature", "properties": {"norad_id": 66564, "name": "STARLINK-35358", "group": "last-30-days", "lat": -24.784673270177677, "lon": 0.9237001333711656, "alt_km": 395.8364269368467, "timestamp": "2025-12-07T14:37:03.994428+00:00", "meta": {"OBJECT_NAME": "STARLINK-35358", "OBJECT_ID": "2025-268H", "EPOCH": "2025-12-06T22:00:01.999584", "MEAN_MOTION": 15.60630233, "ECCENTRICITY": 0.00016683, "INCLINATION": 42.9996, "RA_OF_ASC_NODE": 155.3228, "ARG_OF_PERICENTER": 269.9325, "MEAN_ANOMALY": 16.9282, "EPHEMERIS_TYPE": 0, "CLASSIFICATION_TYPE": "U", "NORAD_CAT_ID": 66564, "ELEMENT_SET_NO": 999, "REV_AT_EPOCH": 368, "BSTAR": -0.025866335, "MEAN_MOTION_DOT": -0.01941082, "MEAN_MOTION_DDOT": 0}, "tle": {"line1": "1 66564U 25268H   25340.91668981 -.01941082  00000+0 -25866-1 0  9996", "line2": "2 66564  42.9996 155.3228 0001668 269.9325  16.9282 15.60630233  3685"}}, "geometry": {"type": "Point", "coordinates": [0.9237001333711656, -24.784673270177677]}}, {"type": "Feature", "properties": {"norad_id": 66565, "name": "STARLINK-35893", "group": "last-30-days", "lat": -25.92324914959125, "lon": 2.6566075518298375, "alt_km": 396.17715780052094, "timestamp": "2025-12-07T14:37:03.994442+00:00", "meta": {"OBJECT_NAME": "STARLINK-35893", "OBJECT_ID": "2025-268J", "EPOCH": "2025-12-06T22:00:01.999584", "MEAN_MOTION": 15.60540366, "ECCENTRICITY": 0.0001777, "INCLINATION": 42.9997, "RA_OF_ASC_NODE": 155.3178, "ARG_OF_PERICENTER": 286.7691, "MEAN_ANOMALY": 2.0731, "EPHEMERIS_TYPE": 0, "CLASSIFICATION_TYPE": "U", "NORAD_CAT_ID": 66565, "ELEMENT_SET_NO": 999, "REV_AT_EPOCH": 373, "BSTAR": -0.024572177, "MEAN_MOTION_DOT": -0.01849347, "MEAN_MOTION_DDOT": 0}, "tle": {"line1": "1 66565U 25268J   25340.91668981 -.01849347  00000+0 -24572-1 0  9991", "line2": "2 66565  42.9997 155.3178 0001777 286.7691   2.0731 15.60540366  3733"}}, "geometry": {"type": "Point", "coordinates": [2.6566075518298375, -25.92324914959125]}}, {"type": "Feature", "properties": {"norad_id": 66566, "name": "STARLINK-35871", "group": "last-30-days", "lat": -27.012679274938694, "lon": 4.377951741052055, "alt_km": 395.96722522238633, "timestamp": "2025-12-07T14:37:03.994452+00:00", "meta": {"OBJECT_NAME": "STARLINK-35871", "OBJECT_ID": "2025-268K", "EPOCH": "2025-12-06T22:00:01.999584", "MEAN_MOTION": 15.60627098, "ECCENTRICITY": 0.00016725, "INCLINATION": 42.9996, "RA_OF_ASC_NODE": 155.3128, "ARG_OF_PERICENTER": 272.0572, "MEAN_ANOMALY": 18.6401, "EPHEMERIS_TYPE": 0, "CLASSIFICATION_TYPE": "U", "NORAD_CAT_ID": 66566, "ELEMENT_SET_NO": 999, "REV_AT_EPOCH": 373, "BSTAR": -0.025831689, "MEAN_MOTION_DOT": -0.01938587, "MEAN_MOTION_DDOT": 0}, "tle": {"line1": "1 66566U 25268K   25340.91668981 -.01938587  00000+0 -25832-1 0  9997", "line2": "2 66566  42.9996 155.3128 0001672 272.0572  18.6401 15.60627098  3733"}}, "geometry": {"type": "Point", "coordinates": [4.377951741052055, -27.012679274938694]}}, {"type": "Feature", "properties": {"norad_id": 66567, "name": "STARLINK-35825", "group": "last-30-days", "lat": -28.095988231757882, "lon": 6.158767536999173, "alt_km": 396.0068550576634, "timestamp": "2025-12-07T14:37:03.994462+00:00", "meta": {"OBJECT_NAME": "STARLINK-35825", "OBJECT_ID": "2025-268L", "EPOCH": "2025-12-06T22:00:01.999584", "MEAN_MOTION": 15.6062891, "ECCENTRICITY": 0.0001608, "INCLINATION": 42.9996, "RA_OF_ASC_NODE": 155.3081, "ARG_OF_PERICENTER": 271.35, "MEAN_ANOMALY": 21.2627, "EPHEMERIS_TYPE": 0, "CLASSIFICATION_TYPE": "U", "NORAD_CAT_ID": 66567, "ELEMENT_SET_NO": 999, "REV_AT_EPOCH": 373, "BSTAR": -0.025838751, "MEAN_MOTION_DOT": -0.01939128, "MEAN_MOTION_DDOT": 0}, "tle": {"line1": "1 66567U 25268L   25340.91668981 -.01939128  00000+0 -25839-1 0  9997", "line2": "2 66567  42.9996 155.3081 0001608 271.3500  21.2627 15.60628910  3738"}}, "geometry": {"type": "Point", "coordinates": [6.158767536999173, -28.095988231757882]}}, {"type": "Feature", "properties": {"norad_id": 66568, "name": "STARLINK-35803", "group": "last-30-days", "lat": -29.15458542194061, "lon": 7.972835335080241, "alt_km": 395.93655121206757, "timestamp": "2025-12-07T14:37:03.994472+00:00", "meta": {"OBJECT_NAME": "STARLINK-35803", "OBJECT_ID": "2025-268M", "EPOCH": "2025-12-06T22:00:01.999584", "MEAN_MOTION": 15.60628929, "ECCENTRICITY": 0.00016641, "INCLINATION": 42.9998, "RA_OF_ASC_NODE": 155.3029, "ARG_OF_PERICENTER": 268.2744, "MEAN_ANOMALY": 26.2554, "EPHEMERIS_TYPE": 0, "CLASSIFICATION_TYPE": "U", "NORAD_CAT_ID": 66568, "ELEMENT_SET_NO": 999, "REV_AT_EPOCH": 373, "BSTAR": -0.025840888, "MEAN_MOTION_DOT": -0.0193931, "MEAN_MOTION_DDOT": 0}, "tle": {"line1": "1 66568U 25268M   25340.91668981 -.01939310  00000+0 -25841-1 0  9994", "line2": "2 66568  42.9998 155.3029 0001664 268.2744  26.2554 15.60628929  3734"}}, "geometry": {"type": "Point", "coordinates": [7.972835335080241, -29.15458542194061]}}, {"type": "Feature", "properties": {"norad_id": 66569, "name": "STARLINK-35835", "group": "last-30-days", "lat": -30.18763674036894, "lon": 9.824575853939466, "alt_km": 395.99890940510613, "timestamp": "2025-12-07T14:37:03.994482+00:00", "meta": {"OBJECT_NAME": "STARLINK-35835", "OBJECT_ID": "2025-268N", "EPOCH": "2025-12-06T22:00:01.999584", "MEAN_MOTION": 15.60631147, "ECCENTRICITY": 0.0001638, "INCLINATION": 42.9996, "RA_OF_ASC_NODE": 155.2982, "ARG_OF_PERICENTER": 269.0603, "MEAN_ANOMALY": 27.3845, "EPHEMERIS_TYPE": 0, "CLASSIFICATION_TYPE": "U", "NORAD_CAT_ID": 66569, "ELEMENT_SET_NO": 999, "REV_AT_EPOCH": 373, "BSTAR": -0.025864874, "MEAN_MOTION_DOT": -0.01941024, "MEAN_MOTION_DDOT": 0}, "tle": {"line1": "1 66569U 25268N   25340.91668981 -.01941024  00000+0 -25865-1 0  9996", "line2": "2 66569  42.9996 155.2982 0001638 269.0603  27.3845 15.60631147  3735"}}, "geometry": {"type": "Point", "coordinates": [9.824575853939466, -30.18763674036894]}}, {"type": "Feature", "properties": {"norad_id": 66570, "name": "STARLINK-35834", "group": "last-30-days", "lat": -31.192052973427884, "lon": 11.71001767595175, "alt_km": 396.1551098670225, "timestamp": "2025-12-07T14:37:03.994491+00:00", "meta": {"OBJECT_NAME": "STARLINK-35834", "OBJECT_ID": "2025-268P", "EPOCH": "2025-12-06T22:00:01.999584", "MEAN_MOTION": 15.60633642, "ECCENTRICITY": 0.00016129, "INCLINATION": 42.9999, "RA_OF_ASC_NODE": 155.2929, "ARG_OF_PERICENTER": 273.443, "MEAN_ANOMALY": 24.9186, "EPHEMERIS_TYPE": 0, "CLASSIFICATION_TYPE": "U", "NORAD_CAT_ID": 66570, "ELEMENT_SET_NO": 999, "REV_AT_EPOCH": 373, "BSTAR": -0.025927921, "MEAN_MOTION_DOT": -0.01945336, "MEAN_MOTION_DDOT": 0}, "tle": {"line1": "1 66570U 25268P   25340.91668981 -.01945336  00000+0 -25928-1 0  9998", "line2": "2 66570  42.9999 155.2929 0001612 273.4430  24.9186 15.60633642  3733"}}, "geometry": {"type": "Point", "coordinates": [11.71001767595175, -31.192052973427884]}}, {"type": "Feature", "properties": {"norad_id": 66571, "name": "STARLINK-35836", "group": "last-30-days", "lat": -32.169929170057586, "lon": 13.640318250237392, "alt_km": 396.1112188833504, "timestamp": "2025-12-07T14:37:03.994503+00:00", "meta": {"OBJECT_NAME": "STARLINK-35836", "OBJECT_ID": "2025-268Q", "EPOCH": "2025-12-06T22:00:01.999584", "MEAN_MOTION": 15.60633288, "ECCENTRICITY": 0.00016723, "INCLINATION": 42.9997, "RA_OF_ASC_NODE": 155.2882, "ARG_OF_PERICENTER": 271.9193, "MEAN_ANOMALY": 28.36, "EPHEMERIS_TYPE": 0, "CLASSIFICATION_TYPE": "U", "NORAD_CAT_ID": 66571, "ELEMENT_SET_NO": 999, "REV_AT_EPOCH": 373, "BSTAR": -0.025929367, "MEAN_MOTION_DOT": -0.01945451, "MEAN_MOTION_DDOT": 0}, "tle": {"line1": "1 66571U 25268Q   25340.91668981 -.01945451  00000+0 -25929-1 0  9998", "line2": "2 66571  42.9997 155.2882 0001672 271.9193  28.3600 15.60633288  3730"}}, "geometry": {"type": "Point", "coordinates": [13.640318250237392, -32.169929170057586]}}, {"type": "Feature", "properties": {"norad_id": 66572, "name": "STARLINK-35870", "group": "last-30-days", "lat": -33.120092589916446, "lon": 15.617765584586802, "alt_km": 396.10254830379654, "timestamp": "2025-12-07T14:37:03.994513+00:00", "meta": {"OBJECT_NAME": "STARLINK-35870", "OBJECT_ID": "2025-268R", "EPOCH": "2025-12-06T22:00:01.999584", "MEAN_MOTION": 15.60632801, "ECCENTRICITY": 0.00016243, "INCLINATION": 42.9997, "RA_OF_ASC_NODE": 155.2846, "ARG_OF_PERICENTER": 270.0087, "MEAN_ANOMALY": 32.1868, "EPHEMERIS_TYPE": 0, "CLASSIFICATION_TYPE": "U", "NORAD_CAT_ID": 66572, "ELEMENT_SET_NO": 999, "REV_AT_EPOCH": 373, "BSTAR": -0.025890811, "MEAN_MOTION_DOT": -0.01942838, "MEAN_MOTION_DDOT": 0}, "tle": {"line1": "1 66572U 25268R   25340.91668981 -.01942838  00000+0 -25891-1 0  9993", "line2": "2 66572  42.9997 155.2846 0001624 270.0087  32.1868 15.60632801  3739"}}, "geometry": {"type": "Point", "coordinates": [15.617765584586802, -33.120092589916446]}}]}